[{"OBJECT_NAME":"STARLINK-5212","OBJECT_ID":"2022-136AA","EPOCH":"2026-03-09T23:33:17.550432","MEAN_MOTION":15.08852574,"ECCENTRICITY":0.00012246,"INCLINATION":53.2192,"RA_OF_ASC_NODE":337.4271,"ARG_OF_PERICENTER":92.2353,"MEAN_ANOMALY":267.878,"EPHEMERIS_TYPE":0,"CLASSIFICATION_TYPE":"U","NORAD_CAT_ID":54075,"ELEMENT_SET_NO":999,"REV_AT_EPOCH":18696,"BSTAR":-6.0218827e-5,"MEAN_MOTION_DOT":-1.246e-5,"MEAN_MOTION_DDOT":0},{"OBJECT_NAME":"NOAA 17 DEB","OBJECT_ID":"2002-032W","EPOCH":"2026-03-09T23:34:50.358720","MEAN_MOTION":15.06684432,"ECCENTRICITY":0.0012716,"INCLINATION":98.7039,"RA_OF_ASC_NODE":76.0065,"ARG_OF_PERICENTER":104.6864,"MEAN_ANOMALY":255.577,"EPHEMERIS_TYPE":0,"CLASSIFICATION_TYPE":"U","NORAD_CAT_ID":48181,"ELEMENT_SET_NO":999,"REV_AT_EPOCH":26088,"BSTAR":0.0078736038,"MEAN_MOTION_DOT":0.00118919,"MEAN_MOTION_DDOT":0}]
